<?xml version="1.0" encoding="UTF-8"?>
<ndm xmlns:xsi="http://www.w3.org/2001/XMLSchema-instance" xsi:noNamespaceSchemaLocation="https://sanaregistry.org/r/ndmxml_unqualified/ndmxml-2.0.0-master-2.0.xsd">
<omm id="CCSDS_OMM_VERS" version="2.0">
<header><CREATION_DATE/><ORIGINATOR/></header><body><segment><metadata><OBJECT_NAME>ONEWEB-0349</OBJECT_NAME><OBJECT_ID>2021-090C</OBJECT_ID><CENTER_NAME>EARTH</CENTER_NAME><REF_FRAME>TEME</REF_FRAME><TIME_SYSTEM>UTC</TIME_SYSTEM><MEAN_ELEMENT_THEORY>SGP4</MEAN_ELEMENT_THEORY></metadata><data><meanElements><EPOCH>2025-10-10T03:42:36.499104</EPOCH><MEAN_MOTION>13.20773104</MEAN_MOTION><ECCENTRICITY>.0001966</ECCENTRICITY><INCLINATION>87.9221</INCLINATION><RA_OF_ASC_NODE>324.3071</RA_OF_ASC_NODE><ARG_OF_PERICENTER>98.9555</ARG_OF_PERICENTER><MEAN_ANOMALY>261.1801</MEAN_ANOMALY></meanElements><tleParameters><EPHEMERIS_TYPE>0</EPHEMERIS_TYPE><CLASSIFICATION_TYPE>U</CLASSIFICATION_TYPE><NORAD_CAT_ID>49281</NORAD_CAT_ID><ELEMENT_SET_NO>999</ELEMENT_SET_NO><REV_AT_EPOCH>19682</REV_AT_EPOCH><BSTAR>.60901E-4</BSTAR><MEAN_MOTION_DOT>.38E-6</MEAN_MOTION_DOT><MEAN_MOTION_DDOT>0</MEAN_MOTION_DDOT></tleParameters></data></segment></body></omm>
<omm id="CCSDS_OMM_VERS" version="2.0">
<header><CREATION_DATE/><ORIGINATOR/></header><body><segment><metadata><OBJECT_NAME>ONEWEB-0353</OBJECT_NAME><OBJECT_ID>2021-090D</OBJECT_ID><CENTER_NAME>EARTH</CENTER_NAME><REF_FRAME>TEME</REF_FRAME><TIME_SYSTEM>UTC</TIME_SYSTEM><MEAN_ELEMENT_THEORY>SGP4</MEAN_ELEMENT_THEORY></metadata><data><meanElements><EPOCH>2025-10-10T03:55:50.776032</EPOCH><MEAN_MOTION>13.14502221</MEAN_MOTION><ECCENTRICITY>.0001695</ECCENTRICITY><INCLINATION>87.9049</INCLINATION><RA_OF_ASC_NODE>339.5050</RA_OF_ASC_NODE><ARG_OF_PERICENTER>104.0412</ARG_OF_PERICENTER><MEAN_ANOMALY>256.0907</MEAN_ANOMALY></meanElements><tleParameters><EPHEMERIS_TYPE>0</EPHEMERIS_TYPE><CLASSIFICATION_TYPE>U</CLASSIFICATION_TYPE><NORAD_CAT_ID>49282</NORAD_CAT_ID><ELEMENT_SET_NO>999</ELEMENT_SET_NO><REV_AT_EPOCH>19473</REV_AT_EPOCH><BSTAR>.29516E-3</BSTAR><MEAN_MOTION_DOT>.122E-5</MEAN_MOTION_DOT><MEAN_MOTION_DDOT>0</MEAN_MOTION_DDOT></tleParameters></data></segment></body></omm>
<omm id="CCSDS_OMM_VERS" version="2.0">
<header><CREATION_DATE/><ORIGINATOR/></header><body><segment><metadata><OBJECT_NAME>ONEWEB-0356</OBJECT_NAME><OBJECT_ID>2021-090E</OBJECT_ID><CENTER_NAME>EARTH</CENTER_NAME><REF_FRAME>TEME</REF_FRAME><TIME_SYSTEM>UTC</TIME_SYSTEM><MEAN_ELEMENT_THEORY>SGP4</MEAN_ELEMENT_THEORY></metadata><data><meanElements><EPOCH>2025-10-10T03:40:19.594848</EPOCH><MEAN_MOTION>13.20787962</MEAN_MOTION><ECCENTRICITY>.0001966</ECCENTRICITY><INCLINATION>87.9220</INCLINATION><RA_OF_ASC_NODE>324.2988</RA_OF_ASC_NODE><ARG_OF_PERICENTER>67.2574</ARG_OF_PERICENTER><MEAN_ANOMALY>292.8767</MEAN_ANOMALY></meanElements><tleParameters><EPHEMERIS_TYPE>0</EPHEMERIS_TYPE><CLASSIFICATION_TYPE>U</CLASSIFICATION_TYPE><NORAD_CAT_ID>49283</NORAD_CAT_ID><ELEMENT_SET_NO>999</ELEMENT_SET_NO><REV_AT_EPOCH>19682</REV_AT_EPOCH><BSTAR>-.89598E-2</BSTAR><MEAN_MOTION_DOT>-.3629E-4</MEAN_MOTION_DOT><MEAN_MOTION_DDOT>0</MEAN_MOTION_DDOT></tleParameters></data></segment></body></omm>
<omm id="CCSDS_OMM_VERS" version="2.0">
<header><CREATION_DATE/><ORIGINATOR/></header><body><segment><metadata><OBJECT_NAME>ONEWEB-0358</OBJECT_NAME><OBJECT_ID>2021-090F</OBJECT_ID><CENTER_NAME>EARTH</CENTER_NAME><REF_FRAME>TEME</REF_FRAME><TIME_SYSTEM>UTC</TIME_SYSTEM><MEAN_ELEMENT_THEORY>SGP4</MEAN_ELEMENT_THEORY></metadata><data><meanElements><EPOCH>2025-10-10T04:23:32.095104</EPOCH><MEAN_MOTION>13.20772049</MEAN_MOTION><ECCENTRICITY>.0001935</ECCENTRICITY><INCLINATION>87.9236</INCLINATION><RA_OF_ASC_NODE>324.2892</RA_OF_ASC_NODE><ARG_OF_PERICENTER>92.3722</ARG_OF_PERICENTER><MEAN_ANOMALY>267.7633</MEAN_ANOMALY></meanElements><tleParameters><EPHEMERIS_TYPE>0</EPHEMERIS_TYPE><CLASSIFICATION_TYPE>U</CLASSIFICATION_TYPE><NORAD_CAT_ID>49284</NORAD_CAT_ID><ELEMENT_SET_NO>999</ELEMENT_SET_NO><REV_AT_EPOCH>19755</REV_AT_EPOCH><BSTAR>.8022E-4</BSTAR><MEAN_MOTION_DOT>.46E-6</MEAN_MOTION_DOT><MEAN_MOTION_DDOT>0</MEAN_MOTION_DDOT></tleParameters></data></segment></body></omm>
<omm id="CCSDS_OMM_VERS" version="2.0">
<header><CREATION_DATE/><ORIGINATOR/></header><body><segment><metadata><OBJECT_NAME>ONEWEB-0359</OBJECT_NAME><OBJECT_ID>2021-090G</OBJECT_ID><CENTER_NAME>EARTH</CENTER_NAME><REF_FRAME>TEME</REF_FRAME><TIME_SYSTEM>UTC</TIME_SYSTEM><MEAN_ELEMENT_THEORY>SGP4</MEAN_ELEMENT_THEORY></metadata><data><meanElements><EPOCH>2025-10-10T04:18:59.661216</EPOCH><MEAN_MOTION>13.20771667</MEAN_MOTION><ECCENTRICITY>.0002254</ECCENTRICITY><INCLINATION>87.9226</INCLINATION><RA_OF_ASC_NODE>324.2946</RA_OF_ASC_NODE><ARG_OF_PERICENTER>91.1115</ARG_OF_PERICENTER><MEAN_ANOMALY>269.0276</MEAN_ANOMALY></meanElements><tleParameters><EPHEMERIS_TYPE>0</EPHEMERIS_TYPE><CLASSIFICATION_TYPE>U</CLASSIFICATION_TYPE><NORAD_CAT_ID>49285</NORAD_CAT_ID><ELEMENT_SET_NO>999</ELEMENT_SET_NO><REV_AT_EPOCH>19753</REV_AT_EPOCH><BSTAR>-.29467E-3</BSTAR><MEAN_MOTION_DOT>-.107E-5</MEAN_MOTION_DOT><MEAN_MOTION_DDOT>0</MEAN_MOTION_DDOT></tleParameters></data></segment></body></omm>
<omm id="CCSDS_OMM_VERS" version="2.0">
<header><CREATION_DATE/><ORIGINATOR/></header><body><segment><metadata><OBJECT_NAME>ONEWEB-0360</OBJECT_NAME><OBJECT_ID>2021-090H</OBJECT_ID><CENTER_NAME>EARTH</CENTER_NAME><REF_FRAME>TEME</REF_FRAME><TIME_SYSTEM>UTC</TIME_SYSTEM><MEAN_ELEMENT_THEORY>SGP4</MEAN_ELEMENT_THEORY></metadata><data><meanElements><EPOCH>2025-10-10T04:05:21.200064</EPOCH><MEAN_MOTION>13.20772510</MEAN_MOTION><ECCENTRICITY>.0002095</ECCENTRICITY><INCLINATION>87.9225</INCLINATION><RA_OF_ASC_NODE>324.3053</RA_OF_ASC_NODE><ARG_OF_PERICENTER>96.0598</ARG_OF_PERICENTER><MEAN_ANOMALY>264.0774</MEAN_ANOMALY></meanElements><tleParameters><EPHEMERIS_TYPE>0</EPHEMERIS_TYPE><CLASSIFICATION_TYPE>U</CLASSIFICATION_TYPE><NORAD_CAT_ID>49286</NORAD_CAT_ID><ELEMENT_SET_NO>999</ELEMENT_SET_NO><REV_AT_EPOCH>19684</REV_AT_EPOCH><BSTAR>.84716E-4</BSTAR><MEAN_MOTION_DOT>.47E-6</MEAN_MOTION_DOT><MEAN_MOTION_DDOT>0</MEAN_MOTION_DDOT></tleParameters></data></segment></body></omm>
<omm id="CCSDS_OMM_VERS" version="2.0">
<header><CREATION_DATE/><ORIGINATOR/></header><body><segment><metadata><OBJECT_NAME>ONEWEB-0361</OBJECT_NAME><OBJECT_ID>2021-090J</OBJECT_ID><CENTER_NAME>EARTH</CENTER_NAME><REF_FRAME>TEME</REF_FRAME><TIME_SYSTEM>UTC</TIME_SYSTEM><MEAN_ELEMENT_THEORY>SGP4</MEAN_ELEMENT_THEORY></metadata><data><meanElements><EPOCH>2025-10-10T03:38:04.930080</EPOCH><MEAN_MOTION>13.20772243</MEAN_MOTION><ECCENTRICITY>.0001827</ECCENTRICITY><INCLINATION>87.9222</INCLINATION><RA_OF_ASC_NODE>324.3048</RA_OF_ASC_NODE><ARG_OF_PERICENTER>91.4460</ARG_OF_PERICENTER><MEAN_ANOMALY>268.6882</MEAN_ANOMALY></meanElements><tleParameters><EPHEMERIS_TYPE>0</EPHEMERIS_TYPE><CLASSIFICATION_TYPE>U</CLASSIFICATION_TYPE><NORAD_CAT_ID>49287</NORAD_CAT_ID><ELEMENT_SET_NO>999</ELEMENT_SET_NO><REV_AT_EPOCH>19729</REV_AT_EPOCH><BSTAR>.1989E-3</BSTAR><MEAN_MOTION_DOT>.94E-6</MEAN_MOTION_DOT><MEAN_MOTION_DDOT>0</MEAN_MOTION_DDOT></tleParameters></data></segment></body></omm>
<omm id="CCSDS_OMM_VERS" version="2.0">
<header><CREATION_DATE/><ORIGINATOR/></header><body><segment><metadata><OBJECT_NAME>ONEWEB-0362</OBJECT_NAME><OBJECT_ID>2021-090K</OBJECT_ID><CENTER_NAME>EARTH</CENTER_NAME><REF_FRAME>TEME</REF_FRAME><TIME_SYSTEM>UTC</TIME_SYSTEM><MEAN_ELEMENT_THEORY>SGP4</MEAN_ELEMENT_THEORY></metadata><data><meanElements><EPOCH>2025-10-10T03:12:08.699328</EPOCH><MEAN_MOTION>13.19724552</MEAN_MOTION><ECCENTRICITY>.0002008</ECCENTRICITY><INCLINATION>87.9270</INCLINATION><RA_OF_ASC_NODE>354.7305</RA_OF_ASC_NODE><ARG_OF_PERICENTER>105.5269</ARG_OF_PERICENTER><MEAN_ANOMALY>254.6086</MEAN_ANOMALY></meanElements><tleParameters><EPHEMERIS_TYPE>0</EPHEMERIS_TYPE><CLASSIFICATION_TYPE>U</CLASSIFICATION_TYPE><NORAD_CAT_ID>49288</NORAD_CAT_ID><ELEMENT_SET_NO>999</ELEMENT_SET_NO><REV_AT_EPOCH>19393</REV_AT_EPOCH><BSTAR>-.82065E-3</BSTAR><MEAN_MOTION_DOT>-.316E-5</MEAN_MOTION_DOT><MEAN_MOTION_DDOT>0</MEAN_MOTION_DDOT></tleParameters></data></segment></body></omm>

</ndm>
