ONEWEB-0349             
1 49281U 21090C   25283.15458911  .00000038  00000+0  60901-4 0  9990
2 49281  87.9221 324.3071 0001966  98.9555 261.1801 13.20773104196821
ONEWEB-0353             
1 49282U 21090D   25283.16378213  .00000122  00000+0  29516-3 0  9998
2 49282  87.9049 339.5050 0001695 104.0412 256.0907 13.14502221194736
ONEWEB-0356             
1 49283U 21090E   25283.15300457 -.00003629  00000+0 -89598-2 0  9995
2 49283  87.9220 324.2988 0001966  67.2574 292.8767 13.20787962196827
ONEWEB-0358             
1 49284U 21090F   25283.18301036  .00000046  00000+0  80220-4 0  9996
2 49284  87.9236 324.2892 0001935  92.3722 267.7633 13.20772049197553
ONEWEB-0359             
1 49285U 21090G   25283.17985719 -.00000107  00000+0 -29467-3 0  9997
2 49285  87.9226 324.2946 0002254  91.1115 269.0276 13.20771667197532
ONEWEB-0360             
1 49286U 21090H   25283.17038426  .00000047  00000+0  84716-4 0  9992
2 49286  87.9225 324.3053 0002095  96.0598 264.0774 13.20772510196843
ONEWEB-0361             
1 49287U 21090J   25283.15144595  .00000094  00000+0  19890-3 0  9998
2 49287  87.9222 324.3048 0001827  91.4460 268.6882 13.20772243197297
ONEWEB-0362             
1 49288U 21090K   25283.13343402 -.00000316  00000+0 -82065-3 0  9998
2 49288  87.9270 354.7305 0002008 105.5269 254.6086 13.19724552193936
